[{"OBJECT_NAME":"ONEWEB-0067","OBJECT_ID":"2020-020B","EPOCH":"2026-03-09T22:07:45.158880","MEAN_MOTION":13.11414736,"ECCENTRICITY":0.00016272,"INCLINATION":87.8876,"RA_OF_ASC_NODE":40.7116,"ARG_OF_PERICENTER":80.8759,"MEAN_ANOMALY":279.2553,"EPHEMERIS_TYPE":0,"CLASSIFICATION_TYPE":"U","NORAD_CAT_ID":45425,"ELEMENT_SET_NO":999,"REV_AT_EPOCH":28972,"BSTAR":0.00052578292,"MEAN_MOTION_DOT":1.99e-6,"MEAN_MOTION_DDOT":0},{"OBJECT_NAME":"COSMOS 2251 DEB","OBJECT_ID":"1993-036BHJ","EPOCH":"2026-03-08T07:57:57.454272","MEAN_MOTION":13.6068478,"ECCENTRICITY":0.03951841,"INCLINATION":73.9358,"RA_OF_ASC_NODE":196.1107,"ARG_OF_PERICENTER":192.6909,"MEAN_ANOMALY":166.403,"EPHEMERIS_TYPE":0,"CLASSIFICATION_TYPE":"U","NORAD_CAT_ID":37270,"ELEMENT_SET_NO":999,"REV_AT_EPOCH":78233,"BSTAR":0.006973728,"MEAN_MOTION_DOT":8.826e-5,"MEAN_MOTION_DDOT":0}]
